[{"OBJECT_NAME":"IRIDIUM 33 DEB","OBJECT_ID":"1997-051LJ","EPOCH":"2026-03-02T18:50:03.799680","MEAN_MOTION":14.40729708,"ECCENTRICITY":0.0015196,"INCLINATION":86.344,"RA_OF_ASC_NODE":358.4112,"ARG_OF_PERICENTER":322.3065,"MEAN_ANOMALY":67.119,"EPHEMERIS_TYPE":0,"CLASSIFICATION_TYPE":"U","NORAD_CAT_ID":34765,"ELEMENT_SET_NO":999,"REV_AT_EPOCH":88766,"BSTAR":0.00052504,"MEAN_MOTION_DOT":1.699e-5,"MEAN_MOTION_DDOT":0},{"OBJECT_NAME":"IRIDIUM 33 DEB","OBJECT_ID":"1997-051MH","EPOCH":"2026-03-02T14:04:45.910272","MEAN_MOTION":14.52984856,"ECCENTRICITY":0.0018748,"INCLINATION":86.3963,"RA_OF_ASC_NODE":16.5573,"ARG_OF_PERICENTER":181.6432,"MEAN_ANOMALY":232.8017,"EPHEMERIS_TYPE":0,"CLASSIFICATION_TYPE":"U","NORAD_CAT_ID":34833,"ELEMENT_SET_NO":999,"REV_AT_EPOCH":88874,"BSTAR":0.00098658,"MEAN_MOTION_DOT":4.098e-5,"MEAN_MOTION_DDOT":0},{"OBJECT_NAME":"IRIDIUM 33 DEB","OBJECT_ID":"1997-051MQ","EPOCH":"2026-03-02T08:29:26.253312","MEAN_MOTION":14.78273883,"ECCENTRICITY":0.00147986,"INCLINATION":86.3063,"RA_OF_ASC_NODE":277.5659,"ARG_OF_PERICENTER":277.8782,"MEAN_ANOMALY":206.6945,"EPHEMERIS_TYPE":0,"CLASSIFICATION_TYPE":"U","NORAD_CAT_ID":34870,"ELEMENT_SET_NO":999,"REV_AT_EPOCH":90086,"BSTAR":0.0013854384,"MEAN_MOTION_DOT":0.00010105,"MEAN_MOTION_DDOT":0},{"OBJECT_NAME":"IRIDIUM 33 DEB","OBJECT_ID":"1997-051MY","EPOCH":"2026-03-02T09:56:07.129824","MEAN_MOTION":14.6721188,"ECCENTRICITY":0.00244063,"INCLINATION":86.3269,"RA_OF_ASC_NODE":290.9356,"ARG_OF_PERICENTER":309.243,"MEAN_ANOMALY":171.292,"EPHEMERIS_TYPE":0,"CLASSIFICATION_TYPE":"U","NORAD_CAT_ID":34896,"ELEMENT_SET_NO":999,"REV_AT_EPOCH":88787,"BSTAR":0.00085971143,"MEAN_MOTION_DOT":4.883e-5,"MEAN_MOTION_DDOT":0},{"OBJECT_NAME":"IRIDIUM 33 DEB","OBJECT_ID":"1997-051NF","EPOCH":"2026-03-02T17:43:26.019840","MEAN_MOTION":14.58672166,"ECCENTRICITY":0.0080504,"INCLINATION":86.1332,"RA_OF_ASC_NODE":331.0601,"ARG_OF_PERICENTER":23.3655,"MEAN_ANOMALY":38.6669,"EPHEMERIS_TYPE":0,"CLASSIFICATION_TYPE":"U","NORAD_CAT_ID":34926,"ELEMENT_SET_NO":999,"REV_AT_EPOCH":87621,"BSTAR":0.0057144,"MEAN_MOTION_DOT":0.0002796,"MEAN_MOTION_DDOT":0},{"OBJECT_NAME":"IRIDIUM 33 DEB","OBJECT_ID":"1997-051NR","EPOCH":"2026-03-02T08:19:21.453312","MEAN_MOTION":14.42422402,"ECCENTRICITY":0.00203467,"INCLINATION":86.3717,"RA_OF_ASC_NODE":22.8955,"ARG_OF_PERICENTER":328.6874,"MEAN_ANOMALY":182.6562,"EPHEMERIS_TYPE":0,"CLASSIFICATION_TYPE":"U","NORAD_CAT_ID":34985,"ELEMENT_SET_NO":999,"REV_AT_EPOCH":88322,"BSTAR":0.0009770996,"MEAN_MOTION_DOT":3.258e-5,"MEAN_MOTION_DDOT":0},{"OBJECT_NAME":"IRIDIUM 33 DEB","OBJECT_ID":"1997-051NX","EPOCH":"2026-03-02T00:30:58.852800","MEAN_MOTION":14.48066283,"ECCENTRICITY":0.00077271,"INCLINATION":86.3285,"RA_OF_ASC_NODE":334.3098,"ARG_OF_PERICENTER":169.1951,"MEAN_ANOMALY":190.942,"EPHEMERIS_TYPE":0,"CLASSIFICATION_TYPE":"U","NORAD_CAT_ID":35051,"ELEMENT_SET_NO":999,"REV_AT_EPOCH":88143,"BSTAR":0.00065269896,"MEAN_MOTION_DOT":2.446e-5,"MEAN_MOTION_DDOT":0},{"OBJECT_NAME":"IRIDIUM 33 DEB","OBJECT_ID":"1997-051NY","EPOCH":"2026-03-02T05:24:43.701984","MEAN_MOTION":14.38616914,"ECCENTRICITY":0.00113532,"INCLINATION":86.3361,"RA_OF_ASC_NODE":346.4096,"ARG_OF_PERICENTER":171.5022,"MEAN_ANOMALY":188.6371,"EPHEMERIS_TYPE":0,"CLASSIFICATION_TYPE":"U","NORAD_CAT_ID":35052,"ELEMENT_SET_NO":999,"REV_AT_EPOCH":88418,"BSTAR":0.00023089415,"MEAN_MOTION_DOT":7.27e-6,"MEAN_MOTION_DDOT":0},{"OBJECT_NAME":"IRIDIUM 33 DEB","OBJECT_ID":"1997-051PF","EPOCH":"2026-03-02T20:21:26.900064","MEAN_MOTION":15.02330738,"ECCENTRICITY":0.0029851,"INCLINATION":86.2064,"RA_OF_ASC_NODE":13.6867,"ARG_OF_PERICENTER":245.5617,"MEAN_ANOMALY":114.2501,"EPHEMERIS_TYPE":0,"CLASSIFICATION_TYPE":"U","NORAD_CAT_ID":35080,"ELEMENT_SET_NO":999,"REV_AT_EPOCH":70883,"BSTAR":0.0094357,"MEAN_MOTION_DOT":0.00127949,"MEAN_MOTION_DDOT":0},{"OBJECT_NAME":"IRIDIUM 33 DEB","OBJECT_ID":"1997-051PM","EPOCH":"2026-02-26T04:48:50.124096","MEAN_MOTION":14.45550738,"ECCENTRICITY":0.0012987,"INCLINATION":86.3869,"RA_OF_ASC_NODE":30.5259,"ARG_OF_PERICENTER":253.5255,"MEAN_ANOMALY":106.452,"EPHEMERIS_TYPE":0,"CLASSIFICATION_TYPE":"U","NORAD_CAT_ID":35297,"ELEMENT_SET_NO":999,"REV_AT_EPOCH":71516,"BSTAR":0.00063111,"MEAN_MOTION_DOT":2.247e-5,"MEAN_MOTION_DDOT":0},{"OBJECT_NAME":"IRIDIUM 33 DEB","OBJECT_ID":"1997-051PP","EPOCH":"2026-03-02T19:26:39.793920","MEAN_MOTION":14.41609681,"ECCENTRICITY":0.0053525,"INCLINATION":86.2921,"RA_OF_ASC_NODE":358.3115,"ARG_OF_PERICENTER":196.4433,"MEAN_ANOMALY":193.3005,"EPHEMERIS_TYPE":0,"CLASSIFICATION_TYPE":"U","NORAD_CAT_ID":35299,"ELEMENT_SET_NO":999,"REV_AT_EPOCH":87484,"BSTAR":0.0013966,"MEAN_MOTION_DOT":4.641e-5,"MEAN_MOTION_DDOT":0},{"OBJECT_NAME":"IRIDIUM 33 DEB","OBJECT_ID":"1997-051QA","EPOCH":"2026-03-02T05:33:05.911488","MEAN_MOTION":14.50243832,"ECCENTRICITY":0.00125112,"INCLINATION":86.3616,"RA_OF_ASC_NODE":350.4456,"ARG_OF_PERICENTER":190.4902,"MEAN_ANOMALY":169.6043,"EPHEMERIS_TYPE":0,"CLASSIFICATION_TYPE":"U","NORAD_CAT_ID":35480,"ELEMENT_SET_NO":999,"REV_AT_EPOCH":88183,"BSTAR":0.00076407362,"MEAN_MOTION_DOT":2.995e-5,"MEAN_MOTION_DDOT":0},{"OBJECT_NAME":"IRIDIUM 33 DEB","OBJECT_ID":"1997-051QE","EPOCH":"2026-02-19T04:36:15.127200","MEAN_MOTION":15.05777687,"ECCENTRICITY":0.0011587,"INCLINATION":86.3587,"RA_OF_ASC_NODE":320.5585,"ARG_OF_PERICENTER":239.1626,"MEAN_ANOMALY":120.847,"EPHEMERIS_TYPE":0,"CLASSIFICATION_TYPE":"U","NORAD_CAT_ID":35484,"ELEMENT_SET_NO":999,"REV_AT_EPOCH":63043,"BSTAR":0.002574,"MEAN_MOTION_DOT":0.00037506,"MEAN_MOTION_DDOT":0},{"OBJECT_NAME":"IRIDIUM 33 DEB","OBJECT_ID":"1997-051QJ","EPOCH":"2026-03-01T20:01:23.558016","MEAN_MOTION":14.85135028,"ECCENTRICITY":0.00273279,"INCLINATION":86.3198,"RA_OF_ASC_NODE":264.3447,"ARG_OF_PERICENTER":116.8625,"MEAN_ANOMALY":243.5398,"EPHEMERIS_TYPE":0,"CLASSIFICATION_TYPE":"U","NORAD_CAT_ID":35488,"ELEMENT_SET_NO":999,"REV_AT_EPOCH":89439,"BSTAR":0.0014874772,"MEAN_MOTION_DOT":0.00012846,"MEAN_MOTION_DDOT":0},{"OBJECT_NAME":"IRIDIUM 33 DEB","OBJECT_ID":"1997-051QN","EPOCH":"2026-03-01T15:44:04.640064","MEAN_MOTION":14.8450894,"ECCENTRICITY":0.00067198,"INCLINATION":86.3542,"RA_OF_ASC_NODE":309.6779,"ARG_OF_PERICENTER":269.5104,"MEAN_ANOMALY":90.5349,"EPHEMERIS_TYPE":0,"CLASSIFICATION_TYPE":"U","NORAD_CAT_ID":35616,"ELEMENT_SET_NO":999,"REV_AT_EPOCH":88744,"BSTAR":0.0016269546,"MEAN_MOTION_DOT":0.00013751,"MEAN_MOTION_DDOT":0},{"OBJECT_NAME":"IRIDIUM 33 DEB","OBJECT_ID":"1997-051QQ","EPOCH":"2026-03-01T23:41:01.438080","MEAN_MOTION":14.52702392,"ECCENTRICITY":0.0030481,"INCLINATION":86.3424,"RA_OF_ASC_NODE":318.8529,"ARG_OF_PERICENTER":109.2412,"MEAN_ANOMALY":251.2096,"EPHEMERIS_TYPE":0,"CLASSIFICATION_TYPE":"U","NORAD_CAT_ID":35618,"ELEMENT_SET_NO":999,"REV_AT_EPOCH":66544,"BSTAR":0.00042564,"MEAN_MOTION_DOT":1.776e-5,"MEAN_MOTION_DDOT":0}]
