IRIDIUM 33 DEB          
1 34765U 97051LJ  26061.78476620  .00001699  00000+0  52504-3 0  9995
2 34765  86.3440 358.4112 0015196 322.3065  67.1190 14.40729708887660
IRIDIUM 33 DEB          
1 34833U 97051MH  26061.58664248  .00004098  00000+0  98658-3 0  9990
2 34833  86.3963  16.5573 0018748 181.6432 232.8017 14.52984856888748
IRIDIUM 33 DEB          
1 34870U 97051MQ  26061.35377608  .00010105  00000+0  13854-2 0  9997
2 34870  86.3063 277.5659 0014798 277.8782 206.6945 14.78273883900867
IRIDIUM 33 DEB          
1 34896U 97051MY  26061.41397141  .00004883  00000+0  85971-3 0  9992
2 34896  86.3269 290.9356 0024406 309.2430 171.2920 14.67211880887875
IRIDIUM 33 DEB          
1 34926U 97051NF  26061.73849560  .00027960  00000+0  57144-2 0  9999
2 34926  86.1332 331.0601 0080504  23.3655  38.6669 14.58672166876212
IRIDIUM 33 DEB          
1 34985U 97051NR  26061.34677608  .00003258  00000+0  97710-3 0  9991
2 34985  86.3717  22.8955 0020346 328.6874 182.6562 14.42422402883225
IRIDIUM 33 DEB          
1 35051U 97051NX  26061.02151450  .00002446  00000+0  65270-3 0  9997
2 35051  86.3285 334.3098 0007727 169.1951 190.9420 14.48066283881434
IRIDIUM 33 DEB          
1 35052U 97051NY  26061.22550581  .00000727  00000+0  23089-3 0  9990
2 35052  86.3361 346.4096 0011353 171.5022 188.6371 14.38616914884183
IRIDIUM 33 DEB          
1 35080U 97051PF  26061.84822801  .00127949  00000+0  94357-2 0  9997
2 35080  86.2064  13.6867 0029851 245.5617 114.2501 15.02330738708832
IRIDIUM 33 DEB          
1 35297U 97051PM  26057.20058014  .00002247  00000+0  63111-3 0  9997
2 35297  86.3869  30.5259 0012987 253.5255 106.4520 14.45550738715166
IRIDIUM 33 DEB          
1 35299U 97051PP  26061.81018280  .00004641  00000+0  13966-2 0  9994
2 35299  86.2921 358.3115 0053525 196.4433 193.3005 14.41609681874846
IRIDIUM 33 DEB          
1 35480U 97051QA  26061.23131842  .00002995  00000+0  76407-3 0  9992
2 35480  86.3616 350.4456 0012511 190.4902 169.6043 14.50243832881833
IRIDIUM 33 DEB          
1 35484U 97051QE  26050.19184175  .00037506  00000+0  25740-2 0  9995
2 35484  86.3587 320.5585 0011587 239.1626 120.8470 15.05777687630433
IRIDIUM 33 DEB          
1 35488U 97051QJ  26060.83430044  .00012846  00000+0  14875-2 0  9997
2 35488  86.3198 264.3447 0027327 116.8625 243.5398 14.85135028894399
IRIDIUM 33 DEB          
1 35616U 97051QN  26060.65560926  .00013751  00000+0  16270-2 0  9990
2 35616  86.3542 309.6779 0006719 269.5104  90.5349 14.84508940887446
IRIDIUM 33 DEB          
1 35618U 97051QQ  26060.98682220  .00001776  00000+0  42564-3 0  9990
2 35618  86.3424 318.8529 0030481 109.2412 251.2096 14.52702392665448
